ONEWEB-0628             
1 55169U 23004AF  26189.90391032  .00000140  00000+0  35356-3 0  9997
2 55169  87.8957 346.3352 0001700  71.5215 288.6099 13.12441381170881
ONEWEB-0629             
1 55170U 23004AG  26189.90718281  .00000001  00000+0 -30689-4 0  9990
2 55170  87.9136   1.5487 0001588  86.4652 273.6661 13.17649165170442
ONEWEB-0631             
1 55171U 23004AH  26189.87804634  .00000044  00000+0  77905-4 0  9993
2 55171  87.9189 331.1222 0002364  92.7098 267.4304 13.18686430172531
ONEWEB-0709             
1 55172U 23004AJ  26189.94892363 -.00000069  00000+0 -22949-3 0  9994
2 55172  87.8875  16.7452 0002525 103.5511 256.5899 13.11418523168727
ONEWEB-0710             
1 55173U 23004AK  26189.84558211  .00000076  00000+0  16291-3 0  9994
2 55173  87.9139   1.5563 0001962  87.1748 272.9608 13.17647936170439
ONEWEB-0711             
1 55174U 23004AL  26189.46231604 -.00000345  00000+0 -10087-2 0  9994
2 55174  87.8881  16.8300 0002135  69.7914 290.3443 13.11415014168628
ONEWEB-0713             
1 55175U 23004AM  26189.93874845 -.00000439  00000+0 -12759-2 0  9999
2 55175  87.8886  16.7373 0002004  78.7108 281.4246 13.11416869168679
ONEWEB-0715             
1 55176U 23004AN  26189.93365946 -.00000498  00000+0 -14399-2 0  9994
2 55176  87.8880  16.7380 0002516  94.8644 265.2771 13.11415929168718
ONEWEB-0716             
1 55177U 23004AP  26189.76289465  .00000018  00000+0  12914-4 0  9996
2 55177  87.9136   1.5754 0001720  97.4505 262.6822 13.17648051170421
ONEWEB-0717             
1 55178U 23004AQ  26189.89790041  .00000043  00000+0  78344-4 0  9995
2 55178  87.9146   1.5383 0002234  79.0573 281.0810 13.17649916170493
ONEWEB-0719             
1 55179U 23004AR  26189.90802159 -.00000017  00000+0 -77015-4 0  9999
2 55179  87.9146   1.5167 0001677  93.0750 267.0573 13.17650200170440
ONEWEB-0530             
1 55796U 23029A   26189.68061353 -.00000044  00000+0 -14023-3 0  9998
2 55796  87.9178 270.1846 0001950  85.9494 274.1862 13.20772718163981
ONEWEB-0534             
1 55797U 23029B   26189.74457446  .00000020  00000+0  17042-4 0  9995
2 55797  87.9181 270.1726 0001975 101.7065 258.4290 13.20772854163993
ONEWEB-0556             
1 55798U 23029C   26189.75125437  .00000564  00000+0  13556-2 0  9996
2 55798  87.9177 270.1662 0000959  79.3522 280.7719 13.20802587163998
ONEWEB-0562             
1 55799U 23029D   26189.73785125 -.00000029  00000+0 -10231-3 0  9997
2 55799  87.9174 270.1551 0001514  83.2147 276.9158 13.20771723163999
ONEWEB-0563             
1 55800U 23029E   26189.73278712 -.00000011  00000+0 -58712-4 0  9997
2 55800  87.9176 270.1861 0002064 108.6855 251.4503 13.20773255163980
